{"type":"FeatureCollection","features":[{"type":"Feature","properties":{"name":"Tanguar Haor","boundary_source":"Bangladesh CRIIPS Haor Boundary layer 147, OBJECTID 202; mapped haor, not Ramsar site 1031","source_url":"https://www.arcgisbd.com/server/rest/services/ADB005/CRIIPS/MapServer/147/202?f=pjson","source_area_km2":116.5,"geodesic_area_km2":116.5889},"geometry":{"type":"Polygon","coordinates":[[[91.11035643500009,25.092950878000067],[91.10912329600006,25.091190882000035],[91.10852393600004,25.09047548700005],[91.10791220800007,25.090545235000036],[91.10741708500007,25.090676036000048],[91.10711963000006,25.090678256000047],[91.10683686500005,25.090680366000072],[91.10606692500005,25.09051474100005],[91.10593864800006,25.09020152200003],[91.10592900200004,25.090189707000036],[91.10563736100005,25.089832470000033],[91.10524224400007,25.089492678000056],[91.10488356000008,25.08937977900007],[91.10479497200004,25.08935189600004],[91.10475470800009,25.089339222000035],[91.10398516300006,25.08921642300004],[91.10389782300007,25.089241994000076],[91.10378239200008,25.08927578600003],[91.10348463700007,25.089362954000023],[91.10312730100009,25.08946031200003],[91.10251469000008,25.089627217000043],[91.10195373700003,25.090031244000045],[91.10112478600007,25.090280170000028],[91.10024942600006,25.090600839000047],[91.09984676500005,25.090938605000076],[91.09975131500005,25.091018672000075],[91.09948944800004,25.091548998000064],[91.09899107700005,25.09193827000007],[91.09877216800004,25.092011295000077],[91.09798667400008,25.09186002200005],[91.09732778300008,25.09183633500004],[91.09655784600005,25.091670661000023],[91.09619977100004,25.091703900000027],[91.09555497400004,25.091763754000056],[91.09463440000007,25.092070127000056],[91.09419459300005,25.09221649500006],[91.09364107400006,25.092288505000056],[91.09256545200003,25.092428432000077],[91.09165885300007,25.092779775000054],[91.09059041600005,25.092542929000047],[91.09033594000005,25.092534270000044],[91.08955502800006,25.092507694000062],[91.08831542600007,25.09264972400007],[91.08822332600005,25.09266027600006],[91.08762968300005,25.092921682000053],[91.08685126000006,25.093570019000026],[91.08591436800003,25.09403386400004],[91.08514821000006,25.094296523000025],[91.08483570400006,25.09451040500005],[91.08478966100006,25.09454191800006],[91.08492406100004,25.095554866000043],[91.08491656700005,25.09648316700003],[91.08514569700009,25.097566826000048],[91.08465544100005,25.09888423700005],[91.08425322700003,25.099515530000076],[91.08372567300006,25.10016201800005],[91.08262811800006,25.100198594000062],[91.08261088600005,25.10121023000005],[91.08251374600007,25.101475545000028],[91.08225580800007,25.10191078400004],[91.08150082200007,25.102652999000043],[91.08056098000009,25.104024924000043],[91.07938182300006,25.105246910000062],[91.07642244100003,25.107001849000028],[91.07436007100006,25.107926856000063],[91.07184646700006,25.108963436000067],[91.06959628800007,25.110193086000038],[91.06869895400007,25.111001268000052],[91.06796518000004,25.111461580000025],[91.06765976100007,25.111918805000073],[91.06734088600007,25.112213750000024],[91.06714034900006,25.112399238000023],[91.06698223600006,25.112454100000036],[91.06632039800007,25.112683746000073],[91.06612004500005,25.112753264000048],[91.06543046600007,25.112823225000056],[91.06422749600006,25.11282080500007],[91.06304446900003,25.112694860000033],[91.06201096500007,25.111731571000064],[91.06157190200008,25.10837461500006],[91.06010298500007,25.104465004000076],[91.05961011900007,25.103360166000073],[91.05919647300004,25.101947250000023],[91.05871085300004,25.100823983000055],[91.05835037300005,25.100414864000072],[91.05778002300008,25.100505605000023],[91.05585722200004,25.101061005000076],[91.05372209500007,25.101834568000072],[91.05321087000004,25.101997319000077],[91.05163360700004,25.10249943100007],[91.04953973100004,25.102535931000034],[91.04830399300005,25.10273968300004],[91.04723651500007,25.102675265000073],[91.04701826000007,25.10266209300005],[91.04580520600007,25.10273565600005],[91.04454639900007,25.10302621200003],[91.04340969300006,25.10368425300004],[91.04212799100009,25.104083289000073],[91.04046406900005,25.104311653000025],[91.03882576700005,25.10475649800003],[91.03840236700006,25.105344500000058],[91.03681218500003,25.10585399100006],[91.03638676400004,25.10620365400007],[91.03562781700003,25.10651230900004],[91.03460600300008,25.106692785000064],[91.03387632100004,25.106945047000067],[91.03313477200004,25.107201407000048],[91.03249370400005,25.107379216000027],[91.03208678600004,25.107100365000065],[91.03190013100004,25.106675653000025],[91.03186842800005,25.106603519000032],[91.03115142600006,25.10624014900003],[91.02971834200008,25.105621733000078],[91.02816755600008,25.10515579500003],[91.02644532100004,25.10410598800007],[91.02600306300008,25.10375487500005],[91.02414550300006,25.10228009900004],[91.02254286100003,25.10129442300007],[91.02137541100007,25.10112912200003],[91.01971094200007,25.101292253000054],[91.01883299800005,25.10160164000007],[91.01840753800008,25.10195125100006],[91.01800730700006,25.102474035000057],[91.01754231700005,25.103798982000058],[91.01746093700007,25.105467986000065],[91.01694726200003,25.106663256000047],[91.01616893800008,25.107513649000055],[91.01491769600005,25.108735633000038],[91.01245023700005,25.10966256200004],[91.01019389600003,25.110219654000048],[91.00760169600005,25.110453974000052],[91.00627060400006,25.110658026000067],[91.00333831300009,25.110049520000075],[90.99909382100003,25.10903810600007],[90.99563752300008,25.108367970000074],[90.99408927100006,25.108205011000052],[90.99190145800009,25.108414675000063],[90.99089423600003,25.108822200000077],[90.99033220900003,25.10885033200003],[90.98900863400007,25.10906636800007],[90.98811224200006,25.10913328500004],[90.98734775300005,25.108955552000054],[90.98636762000007,25.10859642300005],[90.98588522600005,25.108538689000056],[90.98552489300005,25.108584905000043],[90.98522902300004,25.110894649000045],[90.98505478600003,25.11291095400003],[90.98515293300005,25.113278662000027],[90.98560841100004,25.11368733200004],[90.98637449300008,25.114245611000058],[90.98716594800004,25.11499873100007],[90.98774496200008,25.115969945000074],[90.98827551600004,25.11683313900005],[90.98947822100007,25.118406895000078],[90.98956806800004,25.118691452000064],[90.98982880900007,25.119481955000026],[90.98982366400008,25.119766276000064],[90.98981028200006,25.120505902000048],[90.98980626900004,25.120573715000035],[90.98977493100006,25.121103368000036],[90.98958995900006,25.121409311000036],[90.98908446700005,25.12181490200004],[90.98853431800006,25.122245683000074],[90.98829949400005,25.122429556000043],[90.98810481900006,25.122666758000037],[90.98800780700003,25.122784962000026],[90.98765290200004,25.12360394800004],[90.98721854500008,25.12453315700003],[90.98697903100003,25.12471757800006],[90.98553468900008,25.12492220200005],[90.98309913800006,25.125072449000072],[90.98004688800006,25.125092663000032],[90.97975009400005,25.12512037600004],[90.97723703500003,25.12513696600007],[90.97343299100004,25.12510016400006],[90.96814882300004,25.126866134000068],[90.96543098300003,25.126760194000042],[90.96498661900006,25.126505363000035],[90.96421262400008,25.127363267000078],[90.96287307400007,25.129221004000044],[90.96183063800004,25.13059742200005],[90.96063825800007,25.13204329000007],[90.96012344400003,25.133553241000072],[90.96007981000008,25.137593990000028],[90.96093790800006,25.14149192600007],[90.96263064300007,25.146274703000074],[90.96377693700003,25.148527165000075],[90.96567027600008,25.150089926000078],[90.96883732800006,25.150959512000043],[90.97065390300008,25.152317262000054],[90.97269298200007,25.153262634000043],[90.97466392300004,25.15509869300007],[90.97633231800006,25.156731273000048],[90.97784863300006,25.158159391000027],[90.97853292500008,25.159045137000078],[90.97953649400006,25.160517523000067],[90.98118375200005,25.161842014000058],[90.98283310200009,25.163423280000075],[90.98894585700003,25.167273675000047],[90.99730604900003,25.171235182000032],[91.00887381100006,25.17471782800004],[91.02496053100003,25.178533556000048],[91.04296480000005,25.18352100900006],[91.05448509300004,25.18632446400005],[91.06315477300006,25.188058397000077],[91.07060037900004,25.188695464000034],[91.07354024900008,25.18804039500003],[91.07573024700008,25.187855054000067],[91.07654511500004,25.18794470200004],[91.07688753200006,25.188061679000043],[91.07733729700004,25.188440704000072],[91.07789252300006,25.188866747000077],[91.07839502300004,25.18926927800004],[91.07886811000003,25.18931361600005],[91.07955085000003,25.18930863500003],[91.07999536100004,25.189090348000036],[91.08038482300003,25.18858573600005],[91.08061915200005,25.188357035000024],[91.08142600900004,25.18753875300007],[91.08322857100006,25.186474243000077],[91.08516662600005,25.18588659200003],[91.08608546100004,25.185855957000058],[91.08717011500005,25.186755951000066],[91.08788270500008,25.18715690500005],[91.08838225700003,25.187224911000044],[91.08901119200004,25.187076922000074],[91.08940294700005,25.186835101000042],[91.08963523600005,25.186379411000075],[91.08963034700008,25.185829892000072],[91.08972815500005,25.185016787000052],[91.08998776000004,25.18468036300004],[91.09059020800004,25.184508668000035],[91.09132479700008,25.18443157100006],[91.09213794600004,25.18432999600003],[91.09349755000005,25.18389198600005],[91.09504084200006,25.182994390000033],[91.09634731400007,25.18226790600005],[91.09762986900006,25.18180441900006],[91.09854673800004,25.181558678000044],[91.09985875000007,25.181453357000066],[91.10101300100007,25.18132530500003],[91.10119347400007,25.180953611000064],[91.10115841200007,25.179974234000042],[91.10131015600007,25.179327976000025],[91.10151333800007,25.17856186800003],[91.10147999300005,25.177773626000032],[91.10152047900004,25.176435280000078],[91.10172473000006,25.175788632000035],[91.10232109900005,25.17494791400003],[91.10281351300006,25.17422743700007],[91.10348519300004,25.173003854000058],[91.10491481600008,25.17139231500005],[91.10529443800004,25.170874643000047],[91.10613755600008,25.170319513000038],[91.10680344900004,25.169768306000037],[91.10691223900005,25.16878213700005],[91.10690585600008,25.168075299000066],[91.10697992100006,25.167153652000025],[91.10750563500005,25.166721304000077],[91.10812646100004,25.16639534600006],[91.10933832200004,25.16635413800003],[91.10947449100007,25.166185017000032],[91.11071396200003,25.16536184000006],[91.11099370800008,25.164651349000053],[91.11139569800008,25.163630368000042],[91.11154819900008,25.163328445000047],[91.11224524300007,25.161948408000057],[91.11243060200007,25.160855350000077],[91.11213922700006,25.159486609000055],[91.11207146900006,25.158166962000053],[91.11189421100005,25.157076627000038],[91.11232899500004,25.155803982000066],[91.11281349600006,25.155094091000024],[91.11301030700008,25.154805723000038],[91.11307158700004,25.154715934000023],[91.11360859300004,25.154411421000077],[91.11551846900005,25.153774370000065],[91.11670722300005,25.152597582000055],[91.11739135300007,25.151145330000077],[91.11763105000006,25.149899529000038],[91.11770061900006,25.14835036000005],[91.11763350500007,25.147106875000077],[91.11720912900006,25.146449999000026],[91.11633827200006,25.145771099000058],[91.11502255800008,25.14524786900006],[91.11395971300004,25.144925827000066],[91.11365591200007,25.145258150000075],[91.11377599900004,25.146196589000056],[91.11334126000008,25.14746923900003],[91.11231848800008,25.148492428000054],[91.11162626100008,25.14905615300006],[91.10998226100008,25.149246197000025],[91.10878062300009,25.14900132100007],[91.10788419400006,25.148576439000067],[91.10712379100005,25.147769719000053],[91.10700627100005,25.147110519000023],[91.10702683400007,25.146297960000027],[91.10724194400007,25.145407784000042],[91.10695158600004,25.144140571000037],[91.10660476800007,25.142797616000053],[91.10637157600007,25.141682299000024],[91.10655605000005,25.14048770100004],[91.10710583000008,25.139595025000062],[91.10776601500004,25.138574583000036],[91.10808785500006,25.137150465000047],[91.10802062000005,25.13588158300007],[91.10756615700006,25.134971025000027],[91.10589947100004,25.13262241700005],[91.10552984100008,25.13183815600007],[91.10543726500003,25.130848725000078],[91.10582311900004,25.130338092000045],[91.10668488400006,25.130027006000034],[91.10790872100006,25.129662433000078],[91.11027500600005,25.12918774600007],[91.11058130600009,25.129134675000046],[91.11047913600004,25.128315910000026],[91.11110220300009,25.128140650000034],[91.11132552900006,25.128164364000042],[91.11202890800007,25.128844555000057],[91.11247763000006,25.129120452000052],[91.11317802900004,25.129470620000063],[91.11348801000008,25.129823719000058],[91.11426908400006,25.129843236000056],[91.11524306200005,25.12960742000007],[91.11649406200007,25.12916641000004],[91.11743737200004,25.128626159000078],[91.11782085600004,25.12786163800007],[91.11786993000004,25.127125025000055],[91.11744400800006,25.126290444000063],[91.11676711700005,25.125457753000035],[91.11659218400007,25.124621277000074],[91.11689131300005,25.123781230000077],[91.11761010900005,25.123090345000037],[91.11896818200006,25.122166143000072],[91.12008128700006,25.121903859000042],[91.12203048100008,25.121584464000023],[91.12459220800008,25.12115884900004],[91.12592976600007,25.121047144000045],[91.12709768100007,25.120682842000065],[91.12842637000006,25.119606453000074],[91.12858784900004,25.118970533000038],[91.12805780800005,25.118949179000026],[91.12733164200006,25.11882776500005],[91.12702095300006,25.118398537000076],[91.12670910100007,25.11784238000007],[91.12662032700007,25.117284527000038],[91.12539458100008,25.117420775000028],[91.12380494100006,25.117407446000072],[91.12288035000006,25.116932087000066],[91.12228457900005,25.115819540000075],[91.12158539400008,25.11559634300005],[91.12007619000008,25.115226937000045],[91.11862715100006,25.115339428000027],[91.11754360400005,25.11577919100006],[91.11693200100007,25.11598690200003],[91.11587263600006,25.116020267000067],[91.11489715400006,25.11607838200007],[91.11344556800003,25.115911577000077],[91.11221453200005,25.11546383800004],[91.11170619000006,25.114756795000062],[91.11175552600008,25.11404556800005],[91.11233625900007,25.113508069000034],[91.11358756700008,25.113117860000045],[91.11397425400008,25.11270875200006],[91.11449805200004,25.11204473400005],[91.11454599200005,25.11118119100007],[91.11461951100006,25.11006357800005],[91.11508683900007,25.109323820000043],[91.11663742500008,25.108118928000067],[91.11693882500003,25.107532740000067],[91.11693213600006,25.106796546000055],[91.11653786800008,25.10636792400004],[91.11597907700008,25.106245192000074],[91.11536913100008,25.10663059600006],[91.11442597700005,25.10717083000003],[91.11367891000003,25.107811136000066],[91.11279035400008,25.10822401100006],[91.11209674000008,25.10861003100007],[91.11162549300008,25.108918217000053],[91.11051088000005,25.109002733000068],[91.10972902200007,25.108881647000032],[91.10899835000004,25.108252419000053],[91.10888201100005,25.107720146000077],[91.10906962900003,25.106880946000047],[91.10903035000007,25.106599301000074],[91.10923014700006,25.106227879000073],[91.10954258000004,25.10592757300003],[91.11004804700008,25.105441721000034],[91.11043565100005,25.104881087000024],[91.11056558000007,25.104089655000053],[91.11070952700004,25.103212833000043],[91.11021514500004,25.100957021000056],[91.11013646500004,25.099700710000036],[91.11011283600004,25.09932339200003],[91.11008482900007,25.09887619700004],[91.11005779100003,25.09588063900003],[91.11052463800007,25.095090122000045],[91.11104907300006,25.09450227600007],[91.11059200200003,25.093287084000053],[91.11035643500009,25.092950878000067]]]}}]}
