{
  "type": "FeatureCollection",
  "data_source": "SIMULATED_DEMO",
  "date": "2025-07-07",
  "features": [
    {
      "type": "Feature",
      "geometry": {
        "type": "Polygon",
        "coordinates": [
          [
            [
              91.531027896278,
              24.66656398957521
            ],
            [
              91.53103001104476,
              24.66638341930716
            ],
            [
              91.52964680228203,
              24.6663698855287
            ],
            [
              91.52964891901772,
              24.666189315368165
            ],
            [
              91.52925371726805,
              24.66618544626856
            ],
            [
              91.52925583455155,
              24.666004876135545
            ],
            [
              91.52866303293439,
              24.665999070586054
            ],
            [
              91.5286651510499,
              24.66581850049659
            ],
            [
              91.52846755083633,
              24.665816564809955
            ],
            [
              91.52846966921541,
              24.665635994731996
            ],
            [
              91.5280744694186,
              24.66563212261154
            ],
            [
              91.52807658834546,
              24.66545155256113
            ],
            [
              91.52787898876221,
              24.66544961612731
            ],
            [
              91.52788110795265,
              24.665269046088422
            ],
            [
              91.5274859094165,
              24.665265172473624
            ],
            [
              91.5274880291547,
              24.665084602462294
            ],
            [
              91.52729043020179,
              24.665082665281318
            ],
            [
              91.52729255020353,
              24.664902095281512
            ],
            [
              91.52709495155548,
              24.66490015785684
            ],
            [
              91.52709919206539,
              24.66453901787577
            ],
            [
              91.52690159400638,
              24.66453708022345
            ],
            [
              91.52690371451455,
              24.66435651024219
            ],
            [
              91.52670611676037,
              24.664354572346177
            ],
            [
              91.52670823753208,
              24.66417400237644
            ],
            [
              91.52651064008276,
              24.664172064236745
            ],
            [
              91.52651276111797,
              24.66399149427856
            ],
            [
              91.52631516397349,
              24.663989555895178
            ],
            [
              91.52631940655031,
              24.66362841599736
            ],
            [
              91.52612180999486,
              24.66362647738635
            ],
            [
              91.52612605305735,
              24.663265337502576
            ],
            [
              91.52592845709093,
              24.663263398663958
            ],
            [
              91.52593270063909,
              24.662902258794258
            ],
            [
              91.52573510526166,
              24.662900319728024
            ],
            [
              91.52574147128138,
              24.662358609937794
            ],
            [
              91.5255438767771,
              24.662356670660017
            ],
            [
              91.52555236565057,
              24.661634390940787
            ],
            [
              91.52535477230359,
              24.661632451467533
            ],
            [
              91.52537175133125,
              24.660187891941042
            ],
            [
              91.525174160278,
              24.660185952336565
            ],
            [
              91.52517628284754,
              24.660005382391514
            ],
            [
              91.52537387361666,
              24.660007321979933
            ],
            [
              91.52539085115566,
              24.65856276212872
            ],
            [
              91.52558843967259,
              24.658564701329016
            ],
            [
              91.52559692680953,
              24.65784242123095
            ],
            [
              91.52579451421074,
              24.657844360107372
            ],
            [
              91.52580087849414,
              24.65730264993831
            ],
            [
              91.52599846506378,
              24.65730458850692
            ],
            [
              91.52600270724788,
              24.656943448339565
            ],
            [
              91.52620029327004,
              24.65694538661643
            ],
            [
              91.52620453480333,
              24.656584246398943
            ],
            [
              91.52640212027801,
              24.656586184384075
            ],
            [
              91.52640636116053,
              24.65622504411645
            ],
            [
              91.52660394608773,
              24.656226981809855
            ],
            [
              91.52660606621393,
              24.656046411653232
            ],
            [
              91.52680365087772,
              24.656048349070968
            ],
            [
              91.52680577069921,
              24.655867778893796
            ],
            [
              91.52700335509961,
              24.655869716035856
            ],
            [
              91.52700547461639,
              24.65568914583814
            ],
            [
              91.52720305875337,
              24.655691082704536
            ],
            [
              91.52720729715688,
              24.65532994226349
            ],
            [
              91.52740488074642,
              24.655331878838187
            ],
            [
              91.52740699963314,
              24.655151308594863
            ],
            [
              91.52760458295926,
              24.65515324489391
            ],
            [
              91.52760670154132,
              24.654972674630045
            ],
            [
              91.52800186768738,
              24.654976546417217
            ],
            [
              91.5280039856807,
              24.65479597611678
            ],
            [
              91.52820156850065,
              24.65479791160491
            ],
            [
              91.52820368618927,
              24.654617341283938
            ],
            [
              91.528598851323,
              24.654621211449307
            ],
            [
              91.52860096842292,
              24.654440641091778
            ],
            [
              91.5287985507367,
              24.65444257576903
            ],
            [
              91.52880066753195,
              24.65426200539097
            ],
            [
              91.52939341374487,
              24.65426780781698
            ],
            [
              91.52939552966741,
              24.654087237386367
            ],
            [
              91.52979069334437,
              24.654091104340306
            ],
            [
              91.52979280867824,
              24.65391053387316
            ],
            [
              91.53117588020848,
              24.653924059922282
            ],
            [
              91.53117799353353,
              24.65374348933862
            ],
            [
              91.53137557497907,
              24.653745420576932
            ],
            [
              91.53137346193805,
              24.65392599117659
            ],
            [
              91.53176862545892,
              24.65392985290639
            ],
            [
              91.53162281510927,
              24.666389215601615
            ],
            [
              91.531227612379,
              24.666385351665067
            ],
            [
              91.53122549789647,
              24.666565921949115
            ],
            [
              91.531027896278,
              24.66656398957521
            ]
          ]
        ]
      },
      "properties": {
        "id": "wetland_patch_106229e53998",
        "date": "2025-07-07",
        "area_km2": 0.7276,
        "pixel_count": 1819,
        "classification": "OPEN_WATER",
        "mean_delta_db": -3.2640840130366096,
        "median_delta_db": -3.154862403869629,
        "hh_before": -7.987241308003615,
        "hh_after": -11.251325321040225,
        "hv_before": -15.00019393405002,
        "hv_after": -18.000193913078622,
        "delta_hh": -3.2640840130366096,
        "delta_hv": -2.999999979028602,
        "valid_fraction": 1.0,
        "valid_fraction_scope": "region bounding box, all four channels",
        "vegetated_fraction": 0.0,
        "quality_status": "PASS",
        "spatial_status": "PASS",
        "temporal_status": "PASS",
        "temporal_overlap_fraction": 0.7179769103903244,
        "threshold_stability": "STABLE",
        "threshold_variation_fraction": 0.0,
        "evidence_state": "SUPPORTED",
        "centroid": [
          24.660132760611894,
          91.52895144382876
        ],
        "data_source": "SIMULATED_DEMO",
        "evidence_method": "Rule consistency only; no accuracy estimate or independent reference validation.",
        "contextual_land_cover": null,
        "distance_to_water_m": null,
        "context_status": "NOT_AVAILABLE",
        "reference_validated": false
      }
    },
    {
      "type": "Feature",
      "geometry": {
        "type": "Polygon",
        "coordinates": [
          [
            [
              91.53241322081689,
              24.666396940357643
            ],
            [
              91.53255895274768,
              24.653937573250698
            ],
            [
              91.53275653462131,
              24.653939502687756
            ],
            [
              91.53275442354791,
              24.654120073394793
            ],
            [
              91.53314958792494,
              24.654123931522044
            ],
            [
              91.53314747739904,
              24.65430450225651
            ],
            [
              91.5337402249709,
              24.65431028754822
            ],
            [
              91.53373811527656,
              24.6544908583261
            ],
            [
              91.53393569812566,
              24.654492786253407
            ],
            [
              91.53393358869482,
              24.65467335704274
            ],
            [
              91.53432875502277,
              24.65467721215044
            ],
            [
              91.53432664613945,
              24.654857782967195
            ],
            [
              91.53452422961831,
              24.65485971014758
            ],
            [
              91.53452212099849,
              24.65504028097578
            ],
            [
              91.53491728858589,
              24.6550441345896
            ],
            [
              91.53491518051364,
              24.6552247054452
            ],
            [
              91.53511276462221,
              24.65522663187863
            ],
            [
              91.53511065681347,
              24.65540720274568
            ],
            [
              91.53530824122663,
              24.655409128935435
            ],
            [
              91.53530402611565,
              24.655770270687917
            ],
            [
              91.53550161111745,
              24.65577219664994
            ],
            [
              91.53549950381523,
              24.655952767535368
            ],
            [
              91.53569708912163,
              24.655954693253705
            ],
            [
              91.53569498208293,
              24.656135264150574
            ],
            [
              91.53589256769392,
              24.656137189625227
            ],
            [
              91.53589046091876,
              24.65631776053353
            ],
            [
              91.53608804683435,
              24.65631968576449
            ],
            [
              91.5360838337906,
              24.656680827599455
            ],
            [
              91.53628142029487,
              24.65668275260266
            ],
            [
              91.53627720773717,
              24.65704389445147
            ],
            [
              91.53647479483011,
              24.65704581922691
            ],
            [
              91.5364705827585,
              24.65740696108957
            ],
            [
              91.53666817044012,
              24.65740888563723
            ],
            [
              91.53666185303109,
              24.65795059844523
            ],
            [
              91.53685944158549,
              24.657952522781038
            ],
            [
              91.53685101922261,
              24.658674806525664
            ],
            [
              91.53704860893393,
              24.65867673066555
            ],
            [
              91.53703176549642,
              24.660121298065913
            ],
            [
              91.53722935750119,
              24.660123222073565
            ],
            [
              91.53722725226332,
              24.66030379299426
            ],
            [
              91.53702965997442,
              24.66030186897068
            ],
            [
              91.53701281505998,
              24.661746436046514
            ],
            [
              91.53681522051846,
              24.661744511635792
            ],
            [
              91.53680679643229,
              24.662466795001798
            ],
            [
              91.53660920077463,
              24.662464870267645
            ],
            [
              91.53660288164207,
              24.663006582697015
            ],
            [
              91.53640528515244,
              24.663004657655332
            ],
            [
              91.53640107172644,
              24.663365799220497
            ],
            [
              91.53620347468899,
              24.663363873887217
            ],
            [
              91.53619926061253,
              24.66372501540248
            ],
            [
              91.53600166302725,
              24.6637230897776
            ],
            [
              91.53599744830034,
              24.66408423124294
            ],
            [
              91.5357998501672,
              24.664082305326446
            ],
            [
              91.53579774248875,
              24.664262876036414
            ],
            [
              91.53560014409196,
              24.664260949844245
            ],
            [
              91.5355980361088,
              24.66444152053376
            ],
            [
              91.53540043744833,
              24.664439594065918
            ],
            [
              91.53539832916044,
              24.664620164734973
            ],
            [
              91.53520073023633,
              24.664618237991444
            ],
            [
              91.53519651303053,
              24.664979379284123
            ],
            [
              91.53499891355855,
              24.66497745224896
            ],
            [
              91.53499680464063,
              24.665158022872586
            ],
            [
              91.53479920490503,
              24.665156095561724
            ],
            [
              91.53479709568235,
              24.66533666616489
            ],
            [
              91.53440189570433,
              24.66533281073202
            ],
            [
              91.5343997858927,
              24.66551338129876
            ],
            [
              91.53420218565032,
              24.66551145317675
            ],
            [
              91.53420007553392,
              24.66569202372302
            ],
            [
              91.53380487454238,
              24.665688166667838
            ],
            [
              91.53380276383702,
              24.66586873717767
            ],
            [
              91.53360516308787,
              24.665866808244488
            ],
            [
              91.53360305207772,
              24.66604737873384
            ],
            [
              91.53301024910105,
              24.666041590327882
            ],
            [
              91.53300813721768,
              24.666222160764814
            ],
            [
              91.53261293476766,
              24.666218300496798
            ],
            [
              91.53261082229527,
              24.666398870897265
            ],
            [
              91.53241322081689,
              24.666396940357643
            ]
          ]
        ]
      },
      "properties": {
        "id": "wetland_patch_c9cf610fbc6a",
        "date": "2025-07-07",
        "area_km2": 0.4784,
        "pixel_count": 1196,
        "classification": "OPEN_WATER",
        "mean_delta_db": -4.5504613871558455,
        "median_delta_db": -4.531414031982422,
        "hh_before": -7.989793691348073,
        "hh_after": -12.540255078503918,
        "hv_before": -15.0069538215331,
        "hv_after": -18.006953815951395,
        "delta_hh": -4.5504613871558455,
        "delta_hv": -2.9999999944182942,
        "valid_fraction": 1.0,
        "valid_fraction_scope": "region bounding box, all four channels",
        "vegetated_fraction": 0.0,
        "quality_status": "PASS",
        "spatial_status": "PASS",
        "temporal_status": "PASS",
        "temporal_overlap_fraction": 0.653010033444816,
        "threshold_stability": "STABLE",
        "threshold_variation_fraction": 0.0,
        "evidence_state": "SUPPORTED",
        "centroid": [
          24.66018619229534,
          91.53441905531318
        ],
        "data_source": "SIMULATED_DEMO",
        "evidence_method": "Rule consistency only; no accuracy estimate or independent reference validation.",
        "contextual_land_cover": null,
        "distance_to_water_m": null,
        "context_status": "NOT_AVAILABLE",
        "reference_validated": false
      }
    },
    {
      "type": "Feature",
      "geometry": {
        "type": "Polygon",
        "coordinates": [
          [
            [
              91.54776137941599,
              24.67214446051905
            ],
            [
              91.54776347063435,
              24.67196388903422
            ],
            [
              91.54657780144208,
              24.671952419061174
            ],
            [
              91.54657989434597,
              24.67177184766677
            ],
            [
              91.54618467201355,
              24.67176802229546
            ],
            [
              91.54618676546568,
              24.671587450928207
            ],
            [
              91.54579154378344,
              24.671583624549267
            ],
            [
              91.54579363778377,
              24.67140305320918
            ],
            [
              91.54539841675175,
              24.671399225822622
            ],
            [
              91.5454005113003,
              24.671218654509712
            ],
            [
              91.5452029010992,
              24.67121674044255
            ],
            [
              91.54520499591165,
              24.67103616914096
            ],
            [
              91.54500738601526,
              24.67103425482982
            ],
            [
              91.5450094810916,
              24.670853683539576
            ],
            [
              91.5448118714999,
              24.670851768984466
            ],
            [
              91.54481396684014,
              24.670671197705563
            ],
            [
              91.54461635755314,
              24.67066928290648
            ],
            [
              91.54461845315726,
              24.670488711638928
            ],
            [
              91.54442084417498,
              24.67048679659589
            ],
            [
              91.54442294004296,
              24.670306225339665
            ],
            [
              91.54422533136538,
              24.670304310052675
            ],
            [
              91.54422742749726,
              24.6701237388078
            ],
            [
              91.54402981912438,
              24.670121823276855
            ],
            [
              91.54403401189543,
              24.669760680805286
            ],
            [
              91.54383640411153,
              24.669758765046254
            ],
            [
              91.54383850075071,
              24.669578193819568
            ],
            [
              91.54364089327152,
              24.669576277816592
            ],
            [
              91.54364508705714,
              24.669215135381418
            ],
            [
              91.54344748016692,
              24.669213219150365
            ],
            [
              91.5434516744394,
              24.668852076728882
            ],
            [
              91.54325406813813,
              24.668850160269763
            ],
            [
              91.54325826289741,
              24.668489017861976
            ],
            [
              91.54306065718511,
              24.6684871011748
            ],
            [
              91.5430648524312,
              24.668125958780717
            ],
            [
              91.54286724730783,
              24.668124041865482
            ],
            [
              91.5428756386918,
              24.6674017570867
            ],
            [
              91.54267803472587,
              24.667399839975168
            ],
            [
              91.54268642691981,
              24.666677555187754
            ],
            [
              91.54248882411127,
              24.666675637879933
            ],
            [
              91.54250980600777,
              24.664869925754605
            ],
            [
              91.54231220606184,
              24.664868008345753
            ],
            [
              91.54231430442327,
              24.664687437124304
            ],
            [
              91.542511904085,
              24.66468935451729
            ],
            [
              91.54253288373327,
              24.66288364189622
            ],
            [
              91.54273048057357,
              24.662885558870755
            ],
            [
              91.54273887072397,
              24.662163273632668
            ],
            [
              91.54293646644801,
              24.662165190284014
            ],
            [
              91.54294485513483,
              24.66144290491035
            ],
            [
              91.54314244974269,
              24.661444821238526
            ],
            [
              91.54314664339523,
              24.66108367849293
            ],
            [
              91.54334423745522,
              24.66108559452968
            ],
            [
              91.54334843045775,
              24.66072445173433
            ],
            [
              91.54354602396988,
              24.660726367479654
            ],
            [
              91.54355021632244,
              24.660365224634557
            ],
            [
              91.54374780928671,
              24.66036714008848
            ],
            [
              91.54375200098933,
              24.660005997193636
            ],
            [
              91.54394959340576,
              24.660007912356157
            ],
            [
              91.5439516889423,
              24.659827340886117
            ],
            [
              91.54414928109502,
              24.659829255773104
            ],
            [
              91.5441534715386,
              24.659468112787803
            ],
            [
              91.54435106314348,
              24.6594700273834
            ],
            [
              91.54435315805055,
              24.659289455868144
            ],
            [
              91.54455074939172,
              24.65929137018821
            ],
            [
              91.54455284399425,
              24.659110798652602
            ],
            [
              91.5447504350717,
              24.659112712697144
            ],
            [
              91.54475252936972,
              24.658932141141168
            ],
            [
              91.54495012018347,
              24.658934054910194
            ],
            [
              91.54495221417696,
              24.65875348333387
            ],
            [
              91.54514980472699,
              24.65875539682738
            ],
            [
              91.54515189841597,
              24.65857482523072
            ],
            [
              91.54534948870229,
              24.65857673844871
            ],
            [
              91.54535158208677,
              24.658396166831704
            ],
            [
              91.54554917210938,
              24.658398079774194
            ],
            [
              91.54555126518936,
              24.658217508136836
            ],
            [
              91.54594644472753,
              24.65822133321114
            ],
            [
              91.54594853721892,
              24.65804076153761
            ],
            [
              91.54634371627044,
              24.658044585541596
            ],
            [
              91.54634580817324,
              24.657864013831897
            ],
            [
              91.54674098673809,
              24.657867836765593
            ],
            [
              91.5467430780523,
              24.657687265019728
            ],
            [
              91.54792861253118,
              24.65769872749405
            ],
            [
              91.54793070212045,
              24.657518155648777
            ],
            [
              91.54812829098744,
              24.65752006513655
            ],
            [
              91.54812620168225,
              24.65770063699763
            ],
            [
              91.54931173701613,
              24.6577120885663
            ],
            [
              91.54930964939518,
              24.6578926605177
            ],
            [
              91.54970482857074,
              24.657896475661577
            ],
            [
              91.54970274149765,
              24.658077047640067
            ],
            [
              91.55009792132277,
              24.658080861776867
            ],
            [
              91.55009583479756,
              24.658261433782435
            ],
            [
              91.55049101527219,
              24.658265246912155
            ],
            [
              91.55048892929486,
              24.65844581894479
            ],
            [
              91.55068651984678,
              24.658447725135936
            ],
            [
              91.55068443413323,
              24.658628297179842
            ],
            [
              91.55088202498958,
              24.658630203127103
            ],
            [
              91.55087993953983,
              24.65881077518229
            ],
            [
              91.5510775307006,
              24.658812680885656
            ],
            [
              91.55107544551467,
              24.658993252952115
            ],
            [
              91.55127303697986,
              24.65899515841159
            ],
            [
              91.55127095205772,
              24.659175730489327
            ],
            [
              91.55146854382737,
              24.659177635704893
            ],
            [
              91.55146645916903,
              24.6593582077939
            ],
            [
              91.55166405124311,
              24.65936011276556
            ],
            [
              91.5516619668486,
              24.659540684865835
            ],
            [
              91.55185955922708,
              24.65954258959359
            ],
            [
              91.55185539094539,
              24.659903733812165
            ],
            [
              91.55205298391246,
              24.659905638311777
            ],
            [
              91.55205090002529,
              24.660086210430084
            ],
            [
              91.55224849329679,
              24.660088114685774
            ],
            [
              91.55224432602982,
              24.660449258940393
            ],
            [
              91.5524419198899,
              24.660451162967924
            ],
            [
              91.55243775311003,
              24.660812307236057
            ],
            [
              91.55263534755868,
              24.66081421103542
            ],
            [
              91.55263118126592,
              24.661175355317056
            ],
            [
              91.55282877630317,
              24.66117725888824
            ],
            [
              91.55282461049754,
              24.66153840318339
            ],
            [
              91.55302220612339,
              24.661540306526383
            ],
            [
              91.55301387540527,
              24.662262595125664
            ],
            [
              91.55321147218807,
              24.66226449827198
            ],
            [
              91.553203142282,
              24.662986786862216
            ],
            [
              91.55340074022179,
              24.66298868981183
            ],
            [
              91.55337991687841,
              24.664794411129677
            ],
            [
              91.55357751768044,
              24.664796313977092
            ],
            [
              91.55357543551874,
              24.664976886099847
            ],
            [
              91.55337783443251,
              24.664974983236686
            ],
            [
              91.55335700885766,
              24.666780704059054
            ],
            [
              91.55315940494948,
              24.666778800778594
            ],
            [
              91.55315107301452,
              24.667501088918392
            ],
            [
              91.55295346798965,
              24.667499185315137
            ],
            [
              91.55294513459302,
              24.66822147331983
            ],
            [
              91.55274752845142,
              24.668219569393756
            ],
            [
              91.55274336106281,
              24.668580713337555
            ],
            [
              91.55254575437299,
              24.668578809120174
            ],
            [
              91.55254158633466,
              24.668939953014426
            ],
            [
              91.55234397909659,
              24.668938048505726
            ],
            [
              91.55233981040851,
              24.66929919235043
            ],
            [
              91.5521422026222,
              24.669297287550403
            ],
            [
              91.55213803328435,
              24.669658431345553
            ],
            [
              91.55194042494979,
              24.669656526254194
            ],
            [
              91.55193833996613,
              24.669837098129236
            ],
            [
              91.5517407313676,
              24.669835192762303
            ],
            [
              91.55173656077076,
              24.670196336467345
            ],
            [
              91.55153895162397,
              24.67019443080906
            ],
            [
              91.55153686601078,
              24.67037500263905
            ],
            [
              91.5513392566,
              24.670373096705177
            ],
            [
              91.55133717068222,
              24.670553668514884
            ],
            [
              91.55113956100747,
              24.67055176230543
            ],
            [
              91.55113747478507,
              24.670732334094854
            ],
            [
              91.55093986484634,
              24.6707304276098
            ],
            [
              91.55093777831932,
              24.670910999378947
            ],
            [
              91.55074016811662,
              24.670909092618295
            ],
            [
              91.55073808128498,
              24.671089664367155
            ],
            [
              91.5505404708183,
              24.671087757330902
            ],
            [
              91.55053838368201,
              24.671268329059473
            ],
            [
              91.55034077295136,
              24.67126642174761
            ],
            [
              91.55033868551045,
              24.67144699345588
            ],
            [
              91.54994346354154,
              24.671443178021132
            ],
            [
              91.54994137551166,
              24.671623749693314
            ],
            [
              91.54954615305549,
              24.671619933187685
            ],
            [
              91.54954406443665,
              24.671800504823775
            ],
            [
              91.54914884149322,
              24.671796687247255
            ],
            [
              91.54914675228541,
              24.67197725884725
            ],
            [
              91.5479610822377,
              24.671965799786996
            ],
            [
              91.54795899130364,
              24.67214637128764
            ],
            [
              91.54776137941599,
              24.67214446051905
            ]
          ],
          [
            [
              91.54626420886062,
              24.664906307171815
            ],
            [
              91.54982101835212,
              24.664940687283014
            ],
            [
              91.54985232964178,
              24.662232109463474
            ],
            [
              91.54629559688067,
              24.6621977336213
            ],
            [
              91.54626420886062,
              24.664906307171815
            ]
          ]
        ]
      },
      "properties": {
        "id": "wetland_patch_ba86e2518e33",
        "date": "2025-07-07",
        "area_km2": 1.2924,
        "pixel_count": 3231,
        "classification": "VEGETATED_INUNDATION",
        "mean_delta_db": 3.5203420735851823,
        "median_delta_db": 3.5501270294189453,
        "hh_before": -7.9847929245250135,
        "hh_after": -4.464450850939832,
        "hv_before": -15.010738937155967,
        "hv_after": -14.210738751143724,
        "delta_hh": 3.5203420735851823,
        "delta_hv": 0.8000001860122421,
        "valid_fraction": 0.9415204678362573,
        "valid_fraction_scope": "region bounding box, all four channels",
        "vegetated_fraction": 1.0,
        "quality_status": "PASS",
        "spatial_status": "PASS",
        "temporal_status": "PASS",
        "temporal_overlap_fraction": 0.678118229650263,
        "threshold_stability": "SENSITIVE",
        "threshold_variation_fraction": 0.31352522438873415,
        "evidence_state": "MODERATE",
        "centroid": [
          24.664937895220735,
          91.5479353819124
        ],
        "data_source": "SIMULATED_DEMO",
        "evidence_method": "Rule consistency only; no accuracy estimate or independent reference validation.",
        "contextual_land_cover": null,
        "distance_to_water_m": null,
        "context_status": "NOT_AVAILABLE",
        "reference_validated": false
      }
    }
  ]
}